H1 CPF  1  MCC 2022  6  7 15  6581 larets
H2  0304206 5557    27944 2022 06 06 23 45 00 2022 06 11 23 57 00   180 1 1  0 0 0
H9
10 0 59738  4860.000000 0      1007413.682      1216651.791     -6882749.762
10 0 59738  5040.000000 0      2310510.067      1392382.024     -6525181.035
10 0 59738  5220.000000 0      3533358.898      1484482.184     -5929345.953
10 0 59738  5400.000000 0      4629263.727      1492265.304     -5116730.903
10 0 59738  5580.000000 0      5556043.768      1419259.017     -4116786.319
10 0 59738  5760.000000 0      6277710.630      1272957.531     -2965914.121
10 0 59738  5940.000000 0      6765938.970      1064385.552     -1706175.910
10 0 59738  6120.000000 0      7001260.696       807491.864      -383755.596
10 0 59738  6300.000000 0      6973906.255       518398.409       952769.983
10 0 59738  6480.000000 0      6684242.991       214545.140      2254271.180
10 0 59738  6660.000000 0      6142785.412       -86227.022      3472937.139
10 0 59738  6840.000000 0      5369769.133      -366603.525      4564086.352
10 0 59738  7020.000000 0      4394323.984      -610681.188      5487830.056
10 0 59738  7200.000000 0      3253295.205      -804768.367      6210525.610
10 0 59738  7380.000000 0      1989778.655      -938058.949      6705964.421
10 0 59738  7560.000000 0       651446.463     -1003155.065      6956271.228
10 0 59738  7740.000000 0      -711274.911      -996419.704      6952497.709
10 0 59738  7920.000000 0     -2047102.469      -918146.629      6694900.332
10 0 59738  8100.000000 0     -3305806.992      -772543.212      6192911.762
10 0 59738  8280.000000 0     -4440085.157      -567527.145      5464813.790
10 0 59738  8460.000000 0     -5407343.676      -314346.735      4537109.974
10 0 59738  8640.000000 0     -6171326.663       -27037.005      3443599.592
10 0 59738  8820.000000 0     -6703517.332       278268.197      2224178.162
10 0 59738  9000.000000 0     -6984257.695       584140.114       923398.950
10 0 59738  9180.000000 0     -7003527.279       872736.004      -411164.749
10 0 59738  9360.000000 0     -6761330.799      1126713.429     -1730691.202
10 0 59738  9540.000000 0     -6267671.178      1330130.133     -2986933.148
10 0 59738  9720.000000 0     -5542116.344      1469284.784     -4134016.079
10 0 59738  9900.000000 0     -4612971.669      1533452.123     -5130132.104
10 0 59738 10080.000000 0     -3516115.094      1515475.798     -5939050.452
10 0 59738 10260.000000 0     -2293563.087      1412193.532     -6531397.493
10 0 59738 10440.000000 0      -991833.897      1224677.954     -6885675.177
10 0 59738 10620.000000 0       339826.175       958286.707     -6988991.523
10 0 59738 10800.000000 0      1651282.818       622520.428     -6837500.441
10 0 59738 10980.000000 0      2893377.085       230691.883     -6436551.704
10 0 59738 11160.000000 0      4019755.977      -200586.626     -5800531.379
10 0 59738 11340.000000 0      4988607.383      -652082.344     -4952396.070
10 0 59738 11520.000000 0      5764247.415     -1102766.921     -3922908.333
10 0 59738 11700.000000 0      6318500.012     -1530758.344     -2749572.932
10 0 59738 11880.000000 0      6631799.357     -1914340.921     -1475297.239
10 0 59738 12060.000000 0      6693956.411     -2233015.185      -146815.481
10 0 59738 12240.000000 0      6504541.183     -2468522.184      1187063.007
10 0 59738 12420.000000 0      6072853.075     -2605786.845      2477307.477
10 0 59738 12600.000000 0      5417473.701     -2633727.797      3676533.630
10 0 59738 12780.000000 0      4565427.391     -2545888.139      4740793.310
10 0 59738 12960.000000 0      3551006.527     -2340856.303      5631203.125
10 0 59738 13140.000000 0      2414326.411     -2022462.705      6315356.549
10 0 59738 13320.000000 0      1199682.360     -1599742.717      6768463.431
10 0 59738 13500.000000 0       -46208.427     -1086675.088      6974194.214
10 0 59738 13680.000000 0     -1276011.729      -501707.069      6925215.442
10 0 59738 13860.000000 0     -2443561.583       132914.638      6623415.293
10 0 59738 14040.000000 0     -3505574.371       791986.083      6079824.545
10 0 59738 14220.000000 0     -4423244.523      1448335.095      5314234.918
10 0 59738 14400.000000 0     -5163674.303      2073925.252      4354516.893
10 0 59738 14580.000000 0     -5701083.613      2641038.310      3235644.297
10 0 59738 14760.000000 0     -6017746.961      3123485.882      1998449.599
10 0 59738 14940.000000 0     -6104619.109      3497797.734       688146.763
10 0 59738 15120.000000 0     -5961612.019      3744328.887      -647335.672
10 0 59738 15300.000000 0     -5597500.795      3848223.783     -1959139.676
10 0 59738 15480.000000 0     -5029463.780      3800188.976     -3199306.658
10 0 59738 15660.000000 0     -4282272.772      3597029.519     -4322565.542
10 0 59738 15840.000000 0     -3387184.534      3241923.742     -5287994.335
10 0 59738 16020.000000 0     -2380600.687      2744429.794     -6060490.492
10 0 59738 16200.000000 0     -1302566.067      2120230.609     -6612007.844
10 0 59738 16380.000000 0      -195166.179      1390628.082     -6922526.241
10 0 59738 16560.000000 0       899104.870       581811.604     -6980732.073
10 0 59738 16740.000000 0      1938953.653      -276072.690     -6784409.909
10 0 59738 16920.000000 0      2885830.021     -1150029.248     -6340532.558
10 0 59738 17100.000000 0      3705350.016     -2005462.039     -5665046.313
10 0 59738 17280.000000 0      4368559.714     -2807528.669     -4782355.682
10 0 59738 17460.000000 0      4852997.563     -3522562.472     -3724503.035
10 0 59738 17640.000000 0      5143504.293     -4119499.835     -2530052.953
10 0 59738 17820.000000 0      5232747.527     -4571250.314     -1242709.381
10 0 59738 18000.000000 0      5121424.941     -4855942.102        90295.737
10 0 59738 18180.000000 0      4818124.452     -4957975.063      1419979.786
10 0 59738 18360.000000 0      4338842.327     -4868815.531      2697473.523
10 0 59738 18540.000000 0      3706185.134     -4587488.264      3875878.942
10 0 59738 18720.000000 0      2948302.612     -4120743.992      4912034.937
10 0 59738 18900.000000 0      2097610.509     -3482895.348      5768113.294
10 0 59738 19080.000000 0      1189375.600     -2695337.626      6412983.138
10 0 59738 19260.000000 0       260231.210     -1785783.414      6823299.505
10 0 59738 19440.000000 0      -653307.284      -787253.176      6984291.380
10 0 59738 19620.000000 0     -1516268.412       263139.653      6890244.729
10 0 59738 19800.000000 0     -2296548.535      1325567.850      6544676.582
10 0 59738 19980.000000 0     -2966093.732      2358988.872      5960200.494
10 0 59738 20160.000000 0     -3501904.399      3322717.418      5158089.723
10 0 59738 20340.000000 0     -3886834.218      4178024.217      4167543.382
10 0 59738 20520.000000 0     -4110154.063      4889703.837      3024664.844
10 0 59738 20700.000000 0     -4167853.934      5427548.057      1771173.165
10 0 59738 20880.000000 0     -4062664.657      5767651.378       452885.176
10 0 59738 21060.000000 0     -3803799.865      5893485.774      -881973.134
10 0 59738 21240.000000 0     -3406424.852      5796687.568     -2184568.513
10 0 59738 21420.000000 0     -2890870.731      5477502.162     -3407291.399
10 0 59738 21600.000000 0     -2281640.650      4944868.770     -4505522.905
10 0 59738 21780.000000 0     -1606269.037      4216146.666     -5439265.165
10 0 59738 21960.000000 0      -894092.309      3316509.209     -6174572.636
10 0 59738 22140.000000 0      -174988.055      2278037.310     -6684748.610
10 0 59738 22320.000000 0       521864.088      1138549.262     -6951266.098
10 0 59738 22500.000000 0      1169147.550       -59778.494     -6964400.011
10 0 59738 22680.000000 0      1742465.308     -1271958.170     -6723563.516
10 0 59738 22860.000000 0      2221250.585     -2451856.577     -6237340.157
10 0 59738 23040.000000 0      2589507.632     -3553929.248     -5523218.283
10 0 59738 23220.000000 0      2836361.689     -4534982.896     -4607024.251
10 0 59738 23400.000000 0      2956392.620     -5355896.129     -3522043.233
10 0 59738 23580.000000 0      2949736.161     -5983226.943     -2307857.346
10 0 59738 23760.000000 0      2821946.938     -6390641.736     -1008920.148
10 0 59738 23940.000000 0      2583622.603     -6560083.221       327090.512
10 0 59738 24120.000000 0      2249798.951     -6482604.294      1651073.336
10 0 59738 24300.000000 0      1839149.982     -6158820.373      2914372.851
10 0 59738 24480.000000 0      1373033.358     -5598949.004      4070630.286
10 0 59738 24660.000000 0       874436.559     -4822442.956      5077521.193
10 0 59738 24840.000000 0       366881.703     -3857248.188      5898313.018
10 0 59738 25020.000000 0      -126656.327     -2738722.251      6503184.889
10 0 59738 25200.000000 0      -584763.902     -1508274.822      6870260.079
10 0 59738 25380.000000 0      -988493.672      -211803.160      6986340.363
10 0 59738 25560.000000 0     -1322129.829      1102028.720      6847338.548
10 0 59738 25740.000000 0     -1573788.559      2383609.850      6458398.161
10 0 59738 25920.000000 0     -1735835.003      3584240.622      5833704.581
10 0 59738 26100.000000 0     -1805106.508      4657974.558      4995993.351
10 0 59738 26280.000000 0     -1782935.793      5563386.612      3975764.473
10 0 59738 26460.000000 0     -1674973.259      6265203.490      2810210.881
10 0 59738 26640.000000 0     -1490816.462      6735723.614      1541887.189
10 0 59738 26820.000000 0     -1243457.831      6955961.404       217157.735
10 0 59738 27000.000000 0      -948574.032      6916453.013     -1115517.517
10 0 59738 27180.000000 0      -623694.278      6617679.004     -2407395.370
10 0 59738 27360.000000 0      -287291.368      6070063.659     -3611274.235
10 0 59738 27540.000000 0        42152.204      5293568.300     -4683236.961
10 0 59738 27720.000000 0       347059.670      4316910.674     -5584251.732
99
